{
    "links": {
        "self": "http://www.neowsapp.com/rest/v1/neo/3751527?api_key=iIulBulltgU6a56xZRHN4H3l9WmuAYTsLGpBGhQ2"
    },
    "id": "3751527",
    "neo_reference_id": "3751527",
    "name": "(2016 GD207)",
    "designation": "2016 GD207",
    "nasa_jpl_url": "http://ssd.jpl.nasa.gov/sbdb.cgi?sstr=3751527",
    "absolute_magnitude_h": 25.8,
    "estimated_diameter": {
        "kilometers": {
            "estimated_diameter_min": 0.0183888672,
            "estimated_diameter_max": 0.0411187571
        },
        "meters": {
            "estimated_diameter_min": 18.388867207,
            "estimated_diameter_max": 41.1187571041
        },
        "miles": {
            "estimated_diameter_min": 0.0114263088,
            "estimated_diameter_max": 0.0255500032
        },
        "feet": {
            "estimated_diameter_min": 60.3309310875,
            "estimated_diameter_max": 134.9040630575
        }
    },
    "is_potentially_hazardous_asteroid": false,
    "close_approach_data": [
        {
            "close_approach_date": "1994-03-19",
            "close_approach_date_full": "1994-Mar-19 14:04",
            "epoch_date_close_approach": 764085840000,
            "relative_velocity": {
                "kilometers_per_second": "13.0496193886",
                "kilometers_per_hour": "46978.629799041",
                "miles_per_hour": "29190.6936104097"
            },
            "miss_distance": {
                "astronomical": "0.2644929893",
                "lunar": "102.8877728377",
                "kilometers": "39567587.829212791",
                "miles": "24586159.0017308758"
            },
            "orbiting_body": "Earth"
        },
        {
            "close_approach_date": "2016-04-21",
            "close_approach_date_full": "2016-Apr-21 23:37",
            "epoch_date_close_approach": 1461281820000,
            "relative_velocity": {
                "kilometers_per_second": "5.8081979054",
                "kilometers_per_hour": "20909.5124595445",
                "miles_per_hour": "12992.3578946542"
            },
            "miss_distance": {
                "astronomical": "0.0096267697",
                "lunar": "3.7448134133",
                "kilometers": "1440144.242100539",
                "miles": "894864.1366398782"
            },
            "orbiting_body": "Moon"
        },
        {
            "close_approach_date": "2016-04-22",
            "close_approach_date_full": "2016-Apr-22 10:28",
            "epoch_date_close_approach": 1461320880000,
            "relative_velocity": {
                "kilometers_per_second": "6.3276608627",
                "kilometers_per_hour": "22779.579105573",
                "miles_per_hour": "14154.3445836823"
            },
            "miss_distance": {
                "astronomical": "0.0113926565",
                "lunar": "4.4317433785",
                "kilometers": "1704317.146041655",
                "miles": "1059013.567438639"
            },
            "orbiting_body": "Earth"
        }
    ],
    "orbital_data": {
        "orbit_id": "10",
        "orbit_determination_date": "2017-04-06 08:26:37",
        "first_observation_date": "2016-04-10",
        "last_observation_date": "2016-04-19",
        "data_arc_in_days": 9,
        "observations_used": 41,
        "orbit_uncertainty": "7",
        "minimum_orbit_intersection": ".0101786",
        "jupiter_tisserand_invariant": "4.470",
        "epoch_osculation": "2459000.5",
        "eccentricity": ".3268245482918843",
        "semi_major_axis": "1.50229293656008",
        "inclination": "7.60568662109854",
        "ascending_node_longitude": "29.41123930215127",
        "orbital_period": "672.5589630481097",
        "perihelion_distance": "1.011306726166743",
        "perihelion_argument": "190.8950308931817",
        "aphelion_distance": "1.993279146953417",
        "perihelion_time": "2458853.311165690880",
        "mean_anomaly": "78.78562811970572",
        "mean_motion": ".5352690541338431",
        "equinox": "J2000",
        "orbit_class": {
            "orbit_class_type": "APO",
            "orbit_class_description": "Near-Earth asteroid orbits which cross the Earth’s orbit similar to that of 1862 Apollo",
            "orbit_class_range": "a (semi-major axis) > 1.0 AU; q (perihelion) < 1.017 AU"
        }
    },
    "is_sentry_object": false
}